#aV2021  8 11  0  0  0.00000000     288 DD+AD WGS84 FIT  NGA
## 2170 259200.00000000   300.00000000 59437 0.0000000000000
+   32     1  2  3  4  5  6  7  8  9 10 11 12 13 14 15 16 17
+         18 19 20 21 22 23 24 25 26 27 28 29 30 31 32  0  0
+          0  0  0  0  0  0  0  0  0  0  0  0  0  0  0  0  0
+          0  0  0  0  0  0  0  0  0  0  0  0  0  0  0  0  0
+          0  0  0  0  0  0  0  0  0  0  0  0  0  0  0  0  0
++         2  2  2  2  2  2  2  2  2  2  2  2  2  2  2  2  2
++         2  2  2  2  2  2  2  2  2  2  2  2  2  2  2  0  0
++         0  0  0  0  0  0  0  0  0  0  0  0  0  0  0  0  0
++         0  0  0  0  0  0  0  0  0  0  0  0  0  0  0  0  0
++         0  0  0  0  0  0  0  0  0  0  0  0  0  0  0  0  0
%c cc cc ccc ccc cccc cccc cccc cccc ccccc ccccc ccccc ccccc
%c cc cc ccc ccc cccc cccc cccc cccc ccccc ccccc ccccc ccccc
%f  0.0000000  0.000000000  0.00000000000  0.000000000000000
%f  0.0000000  0.000000000  0.00000000000  0.000000000000000
%i    0    0    0    0      0      0      0      0         0
%i    0    0    0    0      0      0      0      0         0
/*      NGA, ST. LOUIS,MO.                                  
/*   EPHEMERIS COMPUTED FROM 2 DAYS OF DATA                 
/*   EPOCHA v6 SMOOTHER                                     
/*   G2139 IERS2010 SATIGS SATAPC                           
*  2021  8 11 12 35  0.00000000
P  1  15242.331211    681.232998  21512.652514    600.865884                    
V  1   8363.019974  26562.188467  -6357.200808     -0.113417                    
P  2 -13957.118603 -21400.461503  -6467.546139   -625.623591                    
V  2   -976.303940  -9452.983618  30410.740246     -0.024001                    
P  3  20416.848448  -7666.467822  14986.860355   -250.431915                    
V  3 -11251.882876  15711.243051  23315.462533     -0.133180                    
P  4  25146.309433   -279.461500  -8640.429923   -203.766998                    
V  4  10088.336958   4981.326028  29115.495924     -0.004126                    
P  5 -15997.183964  -3828.923168 -21046.495164    -50.777859                    
V  5  16109.532688 -20838.725906  -8353.850173     -0.012165                    
P  6  -6025.983446 -25582.459403   3656.348437     54.253793                    
V  6   3432.084501   3666.812546  31861.721674      0.063129                    
P  7   9337.100805 -15240.394437 -19118.905769    222.654623                    
V  7   9562.246607  23439.694532 -14239.870281      0.081072                    
P  8  25884.020897   6274.681004  -2267.953200    -32.233193                    
V  8  -3210.663041   1807.179008 -31517.952566     -0.014584                    
P  9  17982.662281  -9212.175675 -17316.437328   -358.490536                    
V  9  21199.241712   5684.033542  19037.651782     -0.010710                    
P 10  -9071.838118  22149.166177  11324.726602   -180.305344                    
V 10 -11164.146116   9215.060794 -27515.472682     -0.076845                    
P 11 -11635.150175 -22690.337351  -7460.401353     32.746620                    
V 11     78.790382  -9822.525109  29805.400673      0.055315                    
P 12 -20819.968781   6229.651436  14928.030324    -81.381052                    
V 12  12475.540243 -15019.254916  23407.559333     -0.053689                    
P 13 -21490.684568 -13420.687639  -8351.816360    169.876154                    
V 13  10531.261444   1238.034030 -29435.415532      0.051808                    
P 14   9716.252639 -21853.474366  11497.060468     26.274492                    
V 14  11974.395503  -8788.007354 -26863.113012     -0.086433                    
P 15 -26397.882623  -3845.956113  -2352.206025   -129.147178                    
V 15   2788.829181  -3244.753661 -30641.792575      0.026894                    
P 16  11265.844608  10069.623531 -22101.742189   -371.936613                    
V 16 -19961.242824  18801.552759  -1181.338026     -0.062403                    
P 17   4232.470471 -14345.040750  22378.490200    487.719863                    
V 17  26403.195983   6998.741800   -511.391305      0.057762                    
P 18  -7662.917624  17607.171132 -18326.370780    333.741909                    
V 18  -8366.663323 -21744.338200 -17486.245558     -0.033825                    
P 19  -6032.542469 -15994.484765  20092.207649     38.208340                    
V 19  25107.569234   6950.313249  12748.732206      0.049710                    
P 20  -7949.372198 -15178.217786 -20383.868059    519.711679                    
V 20  14825.720189 -21177.146265   9740.963559     -0.001943                    
P 21  17864.267128   8391.516896  18709.619900    136.602213                    
V 21   7658.693079  20829.911737 -16791.058477      0.021669                    
P 22  18175.946477   -796.178117  19463.881509   -540.956654                    
V 22 -12926.137758  20857.398368  13245.316825      0.094165                    
P 23 -16857.681181  20477.858411    236.674042     72.277687                    
V 23  -2313.747996  -1500.286546 -31892.352862     -0.050843                    
P 24 -17521.489898  -5143.360636  19161.634807    204.995334                    
V 24  -8318.457852 -23454.645970 -13320.762660      0.115270                    
P 25 -19930.803332  16026.137323   6361.216774    189.290857                    
V 25   3331.431194  -8355.221148  30504.840402      0.065058                    
P 26   2217.316755  18846.730408 -18528.668384    121.369186                    
V 26 -16200.606548  17230.421019  15909.442792      0.044292                    
P 27  20667.902467  12302.454932 -11845.428652   -176.684703                    
V 27 -14649.379683  -1220.049313 -26887.698872     -0.056485                    
P 28   4820.173550 -20427.716550  16938.197558    521.805559                    
V 28  15736.438686 -13003.578418 -20655.969247     -0.068218                    
P 29 -20071.424944   5808.829039 -16480.551154   -394.526659                    
V 29 -19646.542272  -6846.402730  21516.157737     -0.059297                    
P 30   1036.816636 -23974.622331 -11051.327969   -461.015800                    
V 30   7378.127558  12648.526734 -26814.880455     -0.041575                    
P 31   6859.375433  25350.158742   1374.339180   -133.674646                    
V 31  -3803.726350   -784.854086  31877.199015     -0.020833                    
P 32     71.128861  15535.137787  21671.816401      8.459552                    
V 32 -26793.416141  -4914.697689   3459.467471     -0.026519                    
EOF
